0 FENGYUN 1C DEB
1 30135U 99025SQ  13281.43915027  .00003561  00000-0  14018-2 0  7778
2 30135 098.9397 339.3683 0153305 228.5369 254.5514 14.23621235348860
0 FENGYUN 1C DEB
1 30135U 99025SQ  13282.83127622  .00004695  00000-0  18413-2 0  7782
2 30135 098.9396 340.7831 0153330 224.5414 189.2734 14.23638263349065
0 FENGYUN 1C DEB
1 30135U 99025SQ  13284.09975979  .00004773  00000-0  18712-2 0  7798
2 30135 098.9400 342.0728 0153401 220.9029 210.3848 14.23648053349242
0 FENGYUN 1C DEB
1 30135U 99025SQ  13285.44613322  .00004199  00000-0  16476-2 0  7808
2 30135 098.9403 343.4416 0153531 217.0499 270.7315 14.23657469349437
0 FENGYUN 1C DEB
1 30135U 99025SQ  13286.83678660  .00004571  00000-0  17914-2 0  7811
2 30135 098.9406 344.8554 0153639 213.0790 198.0584 14.23667672349636
0 FENGYUN 1C DEB
1 30135U 99025SQ  13288.10334398  .00007322  00000-0  28560-2 0  7827
2 30135 098.9406 346.1432 0153680 209.4660 209.4185 14.23682784349812
0 FENGYUN 1C DEB
1 30135U 99025SQ  13289.14975532  .00006150  00000-0  24013-2 0  7831
2 30135 098.9402 347.2072 0153717 206.4639 172.5611 14.23694699349962
0 FENGYUN 1C DEB
1 30135U 99025SQ  13290.43534277  .00006655  00000-0  25958-2 0  7842
2 30135 098.9398 348.5144 0153834 202.8067 281.5664 14.23704185350148
0 FENGYUN 1C DEB
1 30135U 99025SQ  13291.82937692  .00005467  00000-0  21353-2 0  7850
2 30135 098.9393 349.9318 0153889 198.8253 226.4682 14.23719250350341
0 FENGYUN 1C DEB
1 30135U 99025SQ  13293.15550735  .00005001  00000-0  19545-2 0  7862
2 30135 098.9388 351.2802 0153926 195.0321 183.4130 14.23731745350530
0 FENGYUN 1C DEB
1 30135U 99025SQ  13294.84932681  .00006981  00000-0  27190-2 0  7877
2 30135 098.9384 353.0021 0153994 190.2178 224.9643 14.23745341350774
